[{"OBJECT_NAME":"STARLINK-32592","OBJECT_ID":"2024-216D","EPOCH":"2026-03-09T21:43:12.180576","MEAN_MOTION":15.27601841,"ECCENTRICITY":0.00017753,"INCLINATION":43.0007,"RA_OF_ASC_NODE":262.4547,"ARG_OF_PERICENTER":283.7388,"MEAN_ANOMALY":76.3266,"EPHEMERIS_TYPE":0,"CLASSIFICATION_TYPE":"U","NORAD_CAT_ID":62035,"ELEMENT_SET_NO":999,"REV_AT_EPOCH":7383,"BSTAR":0.00099861211,"MEAN_MOTION_DOT":0.00027338,"MEAN_MOTION_DDOT":0},{"OBJECT_NAME":"OBJECT J","OBJECT_ID":"2025-155J","EPOCH":"2026-03-09T22:09:22.347648","MEAN_MOTION":15.2758258,"ECCENTRICITY":0.00088188,"INCLINATION":97.4475,"RA_OF_ASC_NODE":37.3123,"ARG_OF_PERICENTER":150.071,"MEAN_ANOMALY":210.1035,"EPHEMERIS_TYPE":0,"CLASSIFICATION_TYPE":"U","NORAD_CAT_ID":64884,"ELEMENT_SET_NO":999,"REV_AT_EPOCH":6559,"BSTAR":0.00051444498,"MEAN_MOTION_DOT":0.00013827,"MEAN_MOTION_DDOT":0}]
